C/2019 K8 (ATLAS),e,93.2207,291.0451,85.3728,2339,0.0000087,0.99863379,0.0000,07/21.3913/2019,2000,g 11.5,4.0
# From MPC118095
C/2019 L1 (PANSTARRS),e,9.9925,254.4128,49.9578,9.836182,0.0319495,0.70604657,17.3687,02/05.0/2021,2000,g 13.5,4.0
# From MPC115886
C/2019 L2 (NEOWISE),e,152.1833,12.5795,18.7465,24.84991,0.0079564,0.93479049,5.3723,02/05.0/2021,2000,g 16.0,4.0
# From MPEC 2021-AJ0
C/2019 L3 (ATLAS),h,01/09.7261/2022,48.3660,290.7860,171.6318,1.000953,3.554209,2000,4.5,4.0
# From MPC118095
C/2019 LB7 (Kleyna),e,164.2910,3.8930,336.4855,34.79248,0.0048026,0.92861671,3.2708,02/05.0/2021,2000,g 17.0,4.0
# From MPC118843
P/2019 M2 (ATLAS),e,12.2821,307.5963,332.5680,3.026717,0.1871743,0.64832544,111.0608,02/05.0/2021,2000,g 21.2,4.0
# From MPC118095
C/2019 M3 (ATLAS),h,01/02.6661/2019,99.4667,154.9014,87.9267,1.001202,2.418895,2000,12.2,4.0
# From MPEC 2021-BE3
C/2019 N1 (ATLAS),h,12/01.8376/2020,82.4211,13.5782,193.4657,1.001751,1.705127,2000,7.5,4.0
# From MPEC 2021-BE3
A/2019 O2,e,93.2870,48.3166,129.6591,57.34954,0.0022694,0.83115862,358.2033,02/05.0/2021,2000,g  9.5,2.0
# From MPC118843
A/2019 O3,h,03/08.1593/2021,89.8126,300.3793,60.0628,1.002270,8.818439,2000,10.0,2.0
# From MPC117072
A/2019 O4,e,115.0866,354.9170,61.8319,32.86246,0.0052318,0.88908546,1.8884,02/05.0/2021,2000,g 15.5,2.0
# From MPEC 2020-AA5
A/2019 Q1,h,07/20.1915/2020,155.7235,42.3676,56.0081,1.001055,4.997103,2000,12.5,2.0
# From MPC117072
A/2019 Q2,e,159.0204,188.0398,176.2952,57.24277,0.0022757,0.97804307,0.0000,07/22.2797/2019,2000,g 18.0,2.0
# From MPC117072
C/2019 Q3 (PANSTARRS),h,08/21.3710/2018,65.5268,151.3236,152.6880,1.004070,7.253792,2000,8.5,4.0
# From MPC117072
P/2019 S2 (PANSTARRS),e,10.4728,93.1303,216.8734,4.736427,0.0956154,0.20677722,68.3036,02/05.0/2021,2000,g 13.5,4.0
# From MPC118096
P/2019 S3 (PANSTARRS),e,8.6938,150.1603,212.9816,3.414767,0.1561933,0.47094324,82.5920,02/05.0/2021,2000,g 18.3,4.0
# From MPEC 2020-AA5
A/2019 S4,e,92.0244,63.1634,71.3652,233.2614,0.0002767,0.98524462,0.0000,04/07.9696/2020,2000,g 14.5,2.0
# From MPEC 2021-BE3
A/2019 T1,e,120.8697,6.9538,91.0327,38.25226,0.0041660,0.88806985,0.0905,02/05.0/2021,2000,g 13.0,2.0
# From MPEC 2020-AA5
A/2019 T2,e,111.4860,155.6423,239.3867,2204,0.0000095,0.99879961,0.0000,04/22.2639/2021,2000,g 12.5,2.0
# From MPEC 2021-BE3
C/2019 T3 (ATLAS),e,121.8623,139.5205,112.2734,3561,0.0000046,0.99833017,0.0000,03/02.6717/2021,2000,g  6.8,4.0
# From MPEC 2021-BE3
C/2019 T4 (ATLAS),e,53.6185,199.9539,351.2163,1034,0.0000297,0.99589576,0.0000,06/09.2694/2022,2000,g  5.0,4.0
# From MPC119998
P/2019 T5 (ATLAS),e,33.4277,247.6845,189.5922,8.007300,0.0434986,0.80917139,24.0933,02/05.0/2021,2000,g 15.0,4.0
# From MPC119998
P/2019 T6 (PANSTARRS),e,18.6948,71.3010,328.9064,5.434228,0.0778032,0.62249928,35.4170,02/05.0/2021,2000,g 15.5,4.0
# From MPC118096
P/2019 U4 (PANSTARRS),e,11.6918,200.0201,180.9688,3.520509,0.1492093,0.47548258,75.4373,02/05.0/2021,2000,g 19.0,4.0
# From MPEC 2021-BE3
A/2019 U5,h,03/30.2587/2023,113.5177,2.6530,181.5767,1.000460,3.622225,2000,10.0,2.0
# From MPEC 2021-BE3
C/2019 U6 (Lemmon),e,60.9994,235.6993,329.6594,419.7885,0.0001146,0.99782215,0.0000,06/18.8139/2020,2000,g 10.0,4.0
# From MPC119998
C/2019 V1 (Borisov),e,61.8624,83.2014,51.1919,1934,0.0000116,0.99839831,0.0000,07/16.5313/2020,2000,g 11.0,4.0
# From MPC119998
P/2019 V2 (Groeller),e,11.8057,189.1606,336.3408,7.511895,0.0478718,0.33218663,5.0399,02/05.0/2021,2000,g 10.0,4.0
# From MPC119998
P/2019 W1 (PANSTARRS),e,23.4610,35.4017,18.7040,4.550298,0.1015417,0.26627558,64.9101,02/05.0/2021,2000,g 12.9,4.0
# From MPC119998
P/2019 X1 (Pruyne),e,10.2447,43.7000,36.5904,6.177248,0.0641965,0.30350084,36.3565,02/05.0/2021,2000,g 10.4,4.0
# From MPC119999
C/2019 Y1 (ATLAS),e,73.2597,31.5190,57.9724,85.92697,0.0012374,0.99032271,0.0000,03/15.5876/2020,2000,g 13.7,4.0
# From MPEC 2021-BE3
C/2019 Y4 (ATLAS),e,45.3800,120.5697,177.4222,321.2391,0.0001712,0.99921251,0.0000,05/31.0217/2020,2000,g 11.8,6.0
# From MPEC 2020-L06
C/2019 Y4-A (ATLAS),h,05/31.0426/2020,45.8243,120.9285,177.2549,1.001354,0.251117,2000,11.6,6.0
# From MPEC 2020-L06
C/2019 Y4-B (ATLAS),e,45.4589,120.6244,177.3882,1140,0.0000256,0.99977832,0.0000,05/31.0214/2020,2000,g 12.8,6.0
# From MPEC 2020-L06
C/2019 Y4-C (ATLAS),h,05/31.0008/2020,45.6066,120.6542,177.2883,1.002072,0.252167,2000,12.7,6.0
# From MPEC 2020-L06
C/2019 Y4-D (ATLAS),e,45.6480,121.0348,177.4270,67.45059,0.0017792,0.99627039,0.0000,05/31.1181/2020,2000,g 12.5,6.0
# From MPEC 2020-K19
A/2020 A1,e,149.0349,119.2914,302.5969,24.64727,0.0080547,0.93226793,3.4669,02/05.0/2021,2000,g 18.0,2.0
# From MPEC 2020-L06
C/2020 A2 (Iwamoto),e,120.7460,286.3782,68.2090,1289,0.0000213,0.99924143,0.0000,01/08.3574/2020,2000,g 13.5,4.0
# From MPEC 2020-L06
C/2020 A3 (ATLAS),h,07/29.7093/2019,146.7766,120.3776,271.1699,1.025245,5.839472,2000,8.0,4.0
# From MPEC 2020-L06
C/2020 B3 (Rankin),e,20.7059,185.8286,325.0708,1428,0.0000183,0.99765772,0.0000,10/19.7593/2019,2000,g 13.0,4.0
# From MPEC 2020-L06
C/2020 F2 (ATLAS),h,07/16.5845/2022,163.5766,250.2525,48.3742,1.002953,8.816844,2000,4.5,4.0
# From MPEC 2020-L06
C/2020 F3 (NEOWISE),e,128.9305,61.0130,37.2671,359.7058,0.0001445,0.99918071,0.0000,07/03.6783/2020,2000,g 12.5,3.2
# From MPEC 2021-BE3
C/2020 F5 (MASTER),h,03/24.2328/2021,51.7054,350.6322,311.0635,1.003178,4.325990,2000,6.5,3.2
# From MPEC 2021-BE3
C/2020 F6 (PANSTARRS),e,174.5821,207.8828,344.6089,402.0593,0.0001223,0.99126697,0.0000,04/11.6550/2020,2000,g 14.5,2.8
# From MPEC 2021-BE3
A/2020 F7,e,93.9528,321.8866,227.9831,759.9035,0.0000471,0.99298345,0.0000,11/14.0995/2021,2000,g 12.0,2.0
# From MPEC 2020-KB7
C/2020 F8 (SWAN),e,110.7884,260.0051,68.2172,273.5572,0.0002178,0.99842700,0.0000,05/27.5709/2020,2000,g 10.0,4.0
# From MPEC 2020-L06
P/2020 G1 (Pimentel),e,18.4763,240.0935,207.6621,3.611060,0.1436322,0.85989464,46.6241,02/05.0/2021,2000,g 17.0,4.0
# From MPEC 2020-L06
C/2020 H2 (Pruyne),e,125.0412,277.6380,26.7017,187.7312,0.0003832,0.99555908,0.0000,04/27.5999/2020,2000,g 18.0,4.0
# From MPEC 2021-BE3
C/2020 H3 (Wierzchos),h,06/03.5553/2020,62.3671,270.5678,29.6089,1.001855,2.304486,2000,13.0,4.0
# From MPEC 2020-L06
C/2020 H4 (Leonard),e,84.5150,307.7369,117.6094,48.17886,0.0029473,0.98075581,0.0000,08/29.5184/2020,2000,g 15.0,3.2
# From MPEC 2021-BE3
C/2020 H5 (Robinson),e,70.2136,210.6395,326.3918,3600,0.0000046,0.99740406,0.0000,12/11.8011/2020,2000,g  5.0,4.0
# From MPEC 2021-BE3
C/2020 H6 (ATLAS),h,10/01.0428/2021,79.9576,213.7057,20.3439,1.000836,4.702933,2000,8.0,3.2
# From MPEC 2020-KB7
C/2020 H7 (Lemmon),e,135.9235,323.5194,82.6780,1405,0.0000187,0.99685380,0.0000,06/02.9510/2020,2000,g 11.0,4.0
# From MPEC 2020-KB7
C/2020 H8 (PANSTARRS),p,06/06.7207/2020,99.7116,129.2192,4.678446,68.3225,2000,10.5,4.0
# From MPEC 2020-L06
A/2020 H9,e,137.8729,213.1228,312.8904,532.5728,0.0000802,0.99515696,0.0000,12/21.3576/2019,2000,g 18.0,2.0
# From MPEC 2021-BE3
C/2020 J1 (SONEAR),h,04/18.5344/2021,142.2938,226.5815,341.7397,1.000272,3.355178,2000,8.5,3.2
# From MPEC 2020-L06
C/2020 K1 (PANSTARRS),h,05/08.0771/2023,89.6535,94.3639,213.9166,1.000831,3.073997,2000,5.5,4.0
# From MPEC 2020-KF5
C/2020 K2 (PANSTARRS),p,12/30.6730/2018,89.7510,34.2348,8.177098,285.5819,2000,6.5,4.0
# From MPEC 2020-KF9
C/2020 K3 (Leonard),p,06/01.0032/2020,129.0152,64.4924,1.583069,28.3546,2000,14.5,4.0
# From MPEC 2020-L06
C/2020 K4 (PANSTARRS),e,125.5622,264.0947,308.7653,23.87292,0.0084498,0.92657347,2.8583,02/05.0/2021,2000,g 16.5,4.0
# From MPEC 2020-L06
C/2020 K5 (PANSTARRS),h,06/05.5833/2021,67.1593,86.1620,249.5936,1.001577,1.535485,2000,11.0,4.0
# From MPEC 2020-L06
C/2020 K6 (Rankin),h,08/26.7335/2021,103.7941,291.5610,41.7212,1.000293,5.992584,2000,8.0,4.0
# From MPEC 2021-BE3
C/2020 K7 (PANSTARRS),e,32.0542,286.0966,358.2016,104.9985,0.0009161,0.93917961,0.4258,02/05.0/2021,2000,g  8.0,4.0
# From MPEC 2021-BE3
C/2020 K8 (Catalina-ATLAS),h,09/14.5162/2020,31.4148,181.5190,260.0542,1.000256,0.474570,2000,15.0,3.2
# From MPEC 2021-BE3
P/2020 K9 (Lemmon-PANSTARRS),e,23.2092,166.2396,196.8760,4.200166,0.1144997,0.32159322,359.2198,02/05.0/2021,2000,g 12.5,4.0
# From MPEC 2020-K19
P/2020 M1 (PANSTARRS),e,8.6414,142.9082,68.1106,5.108238,0.0853685,0.47873669,35.0788,02/05.0/2021,2000,g 14.5,4.0
# From MPEC 2021-BE3
P/2020 M2,e,10.9282,8.2068,14.4185,3.826606,0.1316690,0.40495199,30.3722,02/05.0/2021,2000,g  9.0,4.0
# From MPEC 2021-AJ0
C/2020 M3 (ATLAS),e,23.4731,71.2497,328.4478,26.82851,0.0070927,0.95272741,0.7261,02/05.0/2021,2000,g 14.5,4.0
# From MPEC 2021-BE3
C/2020 M3 (ATLAS),e,23.4731,71.2497,328.4478,26.82863,0.0070926,0.95272762,0.7261,02/05.0/2021,2000,g 14.5,4.0
# From MPEC 2020-K19
A/2020 M4,e,160.1257,348.6303,104.6440,6165,0.0000020,0.99903444,0.0000,11/23.8404/2020,2000,g 14.5,2.0
# From MPEC 2021-BE3
C/2020 M5 (ATLAS),e,93.2222,352.0972,126.3389,11212,0.0000008,0.99973205,0.0000,08/19.8871/2021,2000,g  9.0,4.0
# From MPEC 2021-BE3
C/2020 N1 (PANSTARRS),h,03/12.2292/2021,29.7036,279.9819,186.7716,1.000500,1.320711,2000,12.5,4.0
# From MPEC 2020-W26
C/2020 N2 (ATLAS),e,161.0336,257.0716,331.2026,107.9334,0.0008790,0.98337875,0.0000,08/23.6691/2020,2000,g 16.0,3.2
# From MPEC 2020-SI8
P/2020 O1 (Lemmon-PANSTARRS),e,5.2255,175.9761,104.6212,2.645018,0.2291190,0.11958364,63.6914,02/05.0/2021,2000,g 15.5,4.0
# From MPEC 2021-BE3
C/2020 O2 (Amaral),h,08/28.0798/2021,71.7522,256.7517,10.2219,1.002107,4.864664,2000,8.0,3.2
# From MPEC 2020-SI8
P/2020 O3 (PANSTARRS),e,8.4410,266.8654,81.4745,4.656646,0.0980831,0.10521882,0.6121,02/05.0/2021,2000,g 12.0,4.0
# From MPEC 2021-BE3
C/2020 P1 (NEOWISE),h,10/20.1786/2020,45.0548,53.5374,8.8950,1.000289,0.342166,2000,14.0,3.2
# From MPEC 2021-BE3
C/2020 P3 (ATLAS),e,61.8857,19.4921,82.2470,5501,0.0000024,0.99876173,0.0000,04/20.8967/2021,2000,g  6.0,4.0
# From MPEC 2020-QN1
C/2020 P4-A (SOHO),h,08/08.2211/2020,26.3366,175.2012,177.4796,1.002094,0.090738,2000,5.3,6.0
# From MPEC 2020-QN1
